{
    "to postflight": [],
    "wx": {
        "current METAR": " 130000Z 08009KT 10SM -RA FEW007 OVC021 06/06 A3006 RMK SC2SC6 SLP182=",
        "current TAF": " 042340Z 0500/0524 VRB03KT P6SM -RA SCT015 BKN025 TEMPO\n0500/0505 5SM -RA BR BKN012\nFM050500 04008KT P6SM SCT060 BKN120 TEMPO 0505/0509 BKN050\nFM051800 VRB03KT P6SM BKN050 TEMPO 0518/0524 P6SM -RA BKN020\nRMK NXT FCST BY 050600Z="
    },
    "medical#": 3,
    "completed bookings": [],
    "student": true,
    "ratings": [""],
    "list of instructors": [],
    "name": "",
    "pilot logs": [],
    "list of planes": [],
    "bookings": [],
    "cancelled bookings": []
}