{
    "to postflight": [],
    "wx": {
        "current METAR": "CYVR 08011G18KT 20SM OVC032 09/07 A2991 RMK SC8 SLP130=",
        "current TAF": "CYVR 042340Z 0500/0606 10012G22KT P6SM SCT012 BKN025 TEMPO\n0500/0504 P6SM -RA BKN015\nFM050400 09010KT P6SM SCT020 BKN060\nFM050900 09008KT P6SM SCT060 BKN200 TEMPO 0509/0516 BKN060\nFM051600 08008KT P6SM BKN040 TEMPO 0516/0606 P6SM -RA BKN020\nRMK NXT FCST BY 050300Z"
    },
    "medical#": 232,
    "completed bookings": [],
    "student": true,
    "ratings": ["VFR"],
    "list of instructors": [],
    "name": "Nora",
    "pilot logs": [],
    "list of planes": [],
    "bookings": [],
    "cancelled bookings": []
}