{
    "to postflight": [],
    "wx": {
        "current METAR": "AAAA 130000Z 08009KT 10SM -RA FEW007 OVC021 06/06 A3006 RMK SC2SC6 SLP182=",
        "current TAF": "AAAA 042343Z 0500/0505 VRB03KT P6SM BKN100\nRMK NXT FCST BY 051500Z="
    },
    "medical#": 1,
    "completed bookings": [],
    "student": true,
    "ratings": ["s"],
    "list of instructors": [],
    "name": "s",
    "pilot logs": [],
    "list of planes": [],
    "bookings": [],
    "cancelled bookings": []
}